{"type": "FeatureCollection", "features": [ {"type": "Feature", "properties": {"norad_id": 34077, "name": "IRIDIUM 33 DEB", "group": "iridium-33-debris", "lat": -49.088548318382784, "lon": 42.95508622947295, "alt_km": 680.6568570678983, "timestamp": "2025-12-22T15:43:49.393468+00:00", "meta": {"OBJECT_NAME": "IRIDIUM 33 DEB", "OBJECT_ID": "1997-051CL", "EPOCH": "2025-12-22T03:06:20.172096", "MEAN_MOTION": 14.64936285, "ECCENTRICITY": 0.00091067, "INCLINATION": 86.3848, "RA_OF_ASC_NODE": 47.3707, "ARG_OF_PERICENTER": 8.9651, "MEAN_ANOMALY": 49.6074, "EPHEMERIS_TYPE": 0, "CLASSIFICATION_TYPE": "U", "NORAD_CAT_ID": 34077, "ELEMENT_SET_NO": 999, "REV_AT_EPOCH": 88470, "BSTAR": 0.0012796439, "MEAN_MOTION_DOT": 6.872e-05, "MEAN_MOTION_DDOT": 0}, "tle": {"line1": "1 34077U 97051CL  25356.12940014  .00006872  00000+0  12796-2 0  9994", "line2": "2 34077  86.3848  47.3707 0009106   8.9651  49.6074 14.64936285884708"}}, "geometry": {"type": "Point", "coordinates": [42.95508622947295, -49.088548318382784]}}, {"type": "Feature", "properties": {"norad_id": 34079, "name": "IRIDIUM 33 DEB", "group": "iridium-33-debris", "lat": -71.05932239863012, "lon": -165.20821297534354, "alt_km": 624.3812457501672, "timestamp": "2025-12-22T15:43:49.393480+00:00", "meta": {"OBJECT_NAME": "IRIDIUM 33 DEB", "OBJECT_ID": "1997-051CN", "EPOCH": "2025-12-21T13:15:26.349984", "MEAN_MOTION": 14.83733705, "ECCENTRICITY": 0.000457, "INCLINATION": 86.3769, "RA_OF_ASC_NODE": 4.6535, "ARG_OF_PERICENTER": 336.3629, "MEAN_ANOMALY": 147.0439, "EPHEMERIS_TYPE": 0, "CLASSIFICATION_TYPE": "U", "NORAD_CAT_ID": 34079, "ELEMENT_SET_NO": 999, "REV_AT_EPOCH": 89108, "BSTAR": 0.0012935, "MEAN_MOTION_DOT": 0.00010729, "MEAN_MOTION_DDOT": 0}, "tle": {"line1": "1 34079U 97051CN  25355.55238831  .00010729  00000+0  12935-2 0  9990", "line2": "2 34079  86.3769   4.6535 0004570 336.3629 147.0439 14.83733705891080"}}, "geometry": {"type": "Point", "coordinates": [-165.20821297534354, -71.05932239863012]}}, {"type": "Feature", "properties": {"norad_id": 34088, "name": "IRIDIUM 33 DEB", "group": "iridium-33-debris", "lat": -84.76586619322099, "lon": -110.17575490376197, "alt_km": 602.2359574201319, "timestamp": "2025-12-22T15:43:49.393490+00:00", "meta": {"OBJECT_NAME": "IRIDIUM 33 DEB", "OBJECT_ID": "1997-051CX", "EPOCH": "2025-12-21T19:59:46.870368", "MEAN_MOTION": 14.91753084, "ECCENTRICITY": 0.00067081, "INCLINATION": 86.3838, "RA_OF_ASC_NODE": 26.5444, "ARG_OF_PERICENTER": 148.1548, "MEAN_ANOMALY": 25.1344, "EPHEMERIS_TYPE": 0, "CLASSIFICATION_TYPE": "U", "NORAD_CAT_ID": 34088, "ELEMENT_SET_NO": 999, "REV_AT_EPOCH": 88877, "BSTAR": 0.001888124, "MEAN_MOTION_DOT": 0.00019078, "MEAN_MOTION_DDOT": 0}, "tle": {"line1": "1 34088U 97051CX  25355.83318137  .00019078  00000+0  18881-2 0  9991", "line2": "2 34088  86.3838  26.5444 0006708 148.1548  25.1344 14.91753084888777"}}, "geometry": {"type": "Point", "coordinates": [-110.17575490376197, -84.76586619322099]}}, {"type": "Feature", "properties": {"norad_id": 34091, "name": "IRIDIUM 33 DEB", "group": "iridium-33-debris", "lat": 64.13608180372282, "lon": -125.29294499639525, "alt_km": 634.1749981461144, "timestamp": "2025-12-22T15:43:49.393500+00:00", "meta": {"OBJECT_NAME": "IRIDIUM 33 DEB", "OBJECT_ID": "1997-051DA", "EPOCH": "2025-12-22T03:52:05.601216", "MEAN_MOTION": 14.82461655, "ECCENTRICITY": 0.00342419, "INCLINATION": 86.3415, "RA_OF_ASC_NODE": 62.5176, "ARG_OF_PERICENTER": 259.4997, "MEAN_ANOMALY": 100.2366, "EPHEMERIS_TYPE": 0, "CLASSIFICATION_TYPE": "U", "NORAD_CAT_ID": 34091, "ELEMENT_SET_NO": 999, "REV_AT_EPOCH": 88006, "BSTAR": 0.0054457113, "MEAN_MOTION_DOT": 0.00044372, "MEAN_MOTION_DDOT": 0}, "tle": {"line1": "1 34091U 97051DA  25356.16117594  .00044372  00000+0  54457-2 0  9990", "line2": "2 34091  86.3415  62.5176 0034241 259.4997 100.2366 14.82461655880064"}}, "geometry": {"type": "Point", "coordinates": [-125.29294499639525, 64.13608180372282]}}, {"type": "Feature", "properties": {"norad_id": 34097, "name": "IRIDIUM 33 DEB", "group": "iridium-33-debris", "lat": 63.27642321537971, "lon": 169.44447924617097, "alt_km": 818.1741109331515, "timestamp": "2025-12-22T15:43:49.393510+00:00", "meta": {"OBJECT_NAME": "IRIDIUM 33 DEB", "OBJECT_ID": "1997-051DG", "EPOCH": "2025-12-21T17:25:54.708096", "MEAN_MOTION": 14.34842899, "ECCENTRICITY": 0.00816917, "INCLINATION": 86.1999, "RA_OF_ASC_NODE": 357.4405, "ARG_OF_PERICENTER": 332.7773, "MEAN_ANOMALY": 26.9151, "EPHEMERIS_TYPE": 0, "CLASSIFICATION_TYPE": "U", "NORAD_CAT_ID": 34097, "ELEMENT_SET_NO": 999, "REV_AT_EPOCH": 87248, "BSTAR": 0.0011552896, "MEAN_MOTION_DOT": 3.423e-05, "MEAN_MOTION_DDOT": 0}, "tle": {"line1": "1 34097U 97051DG  25355.72632764  .00003423  00000+0  11553-2 0  9990", "line2": "2 34097  86.1999 357.4405 0081691 332.7773  26.9151 14.34842899872487"}}, "geometry": {"type": "Point", "coordinates": [169.44447924617097, 63.27642321537971]}}, {"type": "Feature", "properties": {"norad_id": 34145, "name": "IRIDIUM 33 DEB", "group": "iridium-33-debris", "lat": -67.46596332587141, "lon": -41.077783786074015, "alt_km": 783.4484798636549, "timestamp": "2025-12-22T15:43:49.393521+00:00", "meta": {"OBJECT_NAME": "IRIDIUM 33 DEB", "OBJECT_ID": "1997-051DY", "EPOCH": "2025-12-22T04:23:22.180704", "MEAN_MOTION": 14.42352181, "ECCENTRICITY": 0.00556524, "INCLINATION": 86.2122, "RA_OF_ASC_NODE": 328.3204, "ARG_OF_PERICENTER": 63.8456, "MEAN_ANOMALY": 296.8453, "EPHEMERIS_TYPE": 0, "CLASSIFICATION_TYPE": "U", "NORAD_CAT_ID": 34145, "ELEMENT_SET_NO": 999, "REV_AT_EPOCH": 87774, "BSTAR": 0.0011263527, "MEAN_MOTION_DOT": 3.81e-05, "MEAN_MOTION_DDOT": 0}, "tle": {"line1": "1 34145U 97051DY  25356.18289561  .00003810  00000+0  11264-2 0  9997", "line2": "2 34145  86.2122 328.3204 0055652  63.8456 296.8453 14.42352181877748"}}, "geometry": {"type": "Point", "coordinates": [-41.077783786074015, -67.46596332587141]}}, {"type": "Feature", "properties": {"norad_id": 34146, "name": "IRIDIUM 33 DEB", "group": "iridium-33-debris", "lat": 8.66878574207244, "lon": 164.85170485990076, "alt_km": 712.2905230552178, "timestamp": "2025-12-22T15:43:49.393531+00:00", "meta": {"OBJECT_NAME": "IRIDIUM 33 DEB", "OBJECT_ID": "1997-051DZ", "EPOCH": "2025-12-22T06:57:02.081088", "MEAN_MOTION": 14.4910725, "ECCENTRICITY": 0.00265551, "INCLINATION": 86.2838, "RA_OF_ASC_NODE": 345.581, "ARG_OF_PERICENTER": 188.5022, "MEAN_ANOMALY": 235.5645, "EPHEMERIS_TYPE": 0, "CLASSIFICATION_TYPE": "U", "NORAD_CAT_ID": 34146, "ELEMENT_SET_NO": 999, "REV_AT_EPOCH": 88245, "BSTAR": 0.00084567374, "MEAN_MOTION_DOT": 3.247e-05, "MEAN_MOTION_DDOT": 0}, "tle": {"line1": "1 34146U 97051DZ  25356.28960742  .00003247  00000+0  84567-3 0  9997", "line2": "2 34146  86.2838 345.5810 0026555 188.5022 235.5645 14.49107250882450"}}, "geometry": {"type": "Point", "coordinates": [164.85170485990076, 8.66878574207244]}}, {"type": "Feature", "properties": {"norad_id": 34159, "name": "IRIDIUM 33 DEB", "group": "iridium-33-debris", "lat": -48.99042488246546, "lon": -131.77684392996116, "alt_km": 753.3147719631334, "timestamp": "2025-12-22T15:43:49.393542+00:00", "meta": {"OBJECT_NAME": "IRIDIUM 33 DEB", "OBJECT_ID": "1997-051EN", "EPOCH": "2025-12-22T02:58:50.860992", "MEAN_MOTION": 14.38515401, "ECCENTRICITY": 0.00260752, "INCLINATION": 86.3498, "RA_OF_ASC_NODE": 44.2398, "ARG_OF_PERICENTER": 254.6532, "MEAN_ANOMALY": 105.1785, "EPHEMERIS_TYPE": 0, "CLASSIFICATION_TYPE": "U", "NORAD_CAT_ID": 34159, "ELEMENT_SET_NO": 999, "REV_AT_EPOCH": 88094, "BSTAR": 0.00034381361, "MEAN_MOTION_DOT": 1.073e-05, "MEAN_MOTION_DDOT": 0}, "tle": {"line1": "1 34159U 97051EN  25356.12419978  .00001073  00000+0  34381-3 0  9998", "line2": "2 34159  86.3498  44.2398 0026075 254.6532 105.1785 14.38515401880947"}}, "geometry": {"type": "Point", "coordinates": [-131.77684392996116, -48.99042488246546]}}, {"type": "Feature", "properties": {"norad_id": 34350, "name": "IRIDIUM 33 DEB", "group": "iridium-33-debris", "lat": 36.037881208387915, "lon": 175.82577464620584, "alt_km": 725.3694831642115, "timestamp": "2025-12-22T15:43:49.393552+00:00", "meta": {"OBJECT_NAME": "IRIDIUM 33 DEB", "OBJECT_ID": "1997-051ES", "EPOCH": "2025-12-21T13:03:35.322048", "MEAN_MOTION": 14.45405822, "ECCENTRICITY": 0.0023399, "INCLINATION": 86.3272, "RA_OF_ASC_NODE": 358.9864, "ARG_OF_PERICENTER": 108.1972, "MEAN_ANOMALY": 16.6332, "EPHEMERIS_TYPE": 0, "CLASSIFICATION_TYPE": "U", "NORAD_CAT_ID": 34350, "ELEMENT_SET_NO": 999, "REV_AT_EPOCH": 88420, "BSTAR": 0.00025936, "MEAN_MOTION_DOT": 9.35e-06, "MEAN_MOTION_DDOT": 0}, "tle": {"line1": "1 34350U 97051ES  25355.54415882  .00000935  00000+0  25936-3 0  9998", "line2": "2 34350  86.3272 358.9864 0023399 108.1972  16.6332 14.45405822884200"}}, "geometry": {"type": "Point", "coordinates": [175.82577464620584, 36.037881208387915]}}, {"type": "Feature", "properties": {"norad_id": 34366, "name": "IRIDIUM 33 DEB", "group": "iridium-33-debris", "lat": 61.15446291644193, "lon": 51.62129646982842, "alt_km": 695.2486018653317, "timestamp": "2025-12-22T15:43:49.393563+00:00", "meta": {"OBJECT_NAME": "IRIDIUM 33 DEB", "OBJECT_ID": "1997-051FJ", "EPOCH": "2025-12-22T04:08:15.707328", "MEAN_MOTION": 14.54126521, "ECCENTRICITY": 0.00230083, "INCLINATION": 86.3687, "RA_OF_ASC_NODE": 45.2106, "ARG_OF_PERICENTER": 110.3257, "MEAN_ANOMALY": 304.3234, "EPHEMERIS_TYPE": 0, "CLASSIFICATION_TYPE": "U", "NORAD_CAT_ID": 34366, "ELEMENT_SET_NO": 999, "REV_AT_EPOCH": 88319, "BSTAR": 0.00086402761, "MEAN_MOTION_DOT": 3.684e-05, "MEAN_MOTION_DDOT": 0}, "tle": {"line1": "1 34366U 97051FJ  25356.17240402  .00003684  00000+0  86403-3 0  9999", "line2": "2 34366  86.3687  45.2106 0023008 110.3257 304.3234 14.54126521883191"}}, "geometry": {"type": "Point", "coordinates": [51.62129646982842, 61.15446291644193]}}]}